IRIDIUM 112             
1 41925U 17003J   24082.42326926 -.00000043  00000+0 -22494-4 0  9995
2 41925  86.3922  69.6362 0001909  91.5016 268.6399 14.34216570376200
IRIDIUM 111             
1 41926U 17003K   24082.41058080  .00000198  00000+0  63585-4 0  9993
2 41926  86.3922  69.6939 0002173  94.8413 265.3031 14.34218789376180
IRIDIUM 113             
1 42803U 17039A   24082.59984875  .00000069  00000+0  17573-4 0  9999
2 42803  86.3945 303.4102 0001982  93.2163 266.9260 14.34218437354146
IRIDIUM 123             
1 42804U 17039B   24082.22271641  .00000554  00000+0  19083-3 0  9996
2 42804  86.4005 335.0685 0002056  88.7889 271.3542 14.34220461352858
IRIDIUM 120             
1 42805U 17039C   24082.10512548  .00000445  00000+0  15194-3 0  9996
2 42805  86.3936 303.5052 0002109  86.4387 273.7050 14.34220522354069
IRIDIUM 115             
1 42806U 17039D   24082.60925757  .00000691  00000+0  19949-3 0  9997
2 42806  86.4472 303.3063 0002028  92.6491 267.4942 14.43289384356480
IRIDIUM 118             
1 42807U 17039E   24082.25443121  .00000323  00000+0  10812-3 0  9991
2 42807  86.4005 335.0569 0002074  84.2617 275.8815 14.34219208352851
IRIDIUM 117             
1 42808U 17039F   24082.76183525  .00000534  00000+0  18356-3 0  9992
2 42808  86.4004 334.8098 0002184  91.8227 268.3219 14.34220263352968
